OBJECT_NAME,OBJECT_ID,EPOCH,MEAN_MOTION,ECCENTRICITY,INCLINATION,RA_OF_ASC_NODE,ARG_OF_PERICENTER,MEAN_ANOMALY,EPHEMERIS_TYPE,CLASSIFICATION_TYPE,NORAD_CAT_ID,ELEMENT_SET_NO,REV_AT_EPOCH,BSTAR,MEAN_MOTION_DOT,MEAN_MOTION_DDOT
STARLINK-5483,2023-021R,2026-06-20T09:53:58.378272,14.98329574,.0003403,69.9994,285.6344,270.5666,89.5103,0,U,55643,999,18417,-.18909E-4,-.319E-5,0
STARLINK-5502,2023-021S,2026-06-20T11:00:03.148128,14.98337204,.0002973,69.9988,285.3972,262.2436,97.8385,0,U,55644,999,18418,-.17976E-4,-.308E-5,0
STARLINK-5510,2023-021V,2026-06-20T08:35:49.519392,14.98326785,.0003201,69.9994,285.4482,269.8070,90.2722,0,U,55647,999,18417,.69048E-4,.731E-5,0
STARLINK-5501,2023-021W,2026-06-20T10:54:02.352960,14.98330768,.0003382,69.9987,285.3822,269.5584,90.5188,0,U,55648,999,18418,-.24587E-4,-.386E-5,0
STARLINK-5469,2023-021X,2026-06-20T10:23:58.943040,14.98329985,.0003229,69.9996,285.3080,273.8553,86.2237,0,U,55649,999,18418,.10068E-5,-.81E-6,0
STARLINK-5494,2023-021Y,2026-06-20T10:42:01.122048,14.98330226,.0002949,69.9994,285.3523,267.5151,92.5670,0,U,55650,999,18418,-.95505E-6,-.104E-5,0
STARLINK-5506,2023-021Z,2026-06-20T09:29:55.501728,14.98331126,.000328,69.9993,285.5806,266.7644,93.3140,0,U,55651,999,18417,.38695E-4,.369E-5,0
STARLINK-5487,2023-021AA,2026-06-20T10:29:59.656128,14.98340113,.0003265,69.9989,285.3233,266.5657,93.5129,0,U,55652,999,18418,-.14449E-3,-.1817E-4,0
STARLINK-5067,2023-021AB,2026-06-20T08:29:49.041312,14.98331350,.0003096,69.9996,285.4341,269.2704,90.8100,0,U,55653,999,18417,.32178E-4,.291E-5,0
STARLINK-5070,2023-021AC,2026-06-20T09:47:57.512256,14.98328305,.0003161,69.9997,285.6262,270.5043,89.5754,0,U,55654,999,18417,.39758E-4,.381E-5,0
STARLINK-5267,2023-021AD,2026-06-20T10:41:41.645760,14.98334883,.0003262,69.9995,265.4792,272.5468,87.5317,0,U,55655,999,18466,-.26391E-4,-.408E-5,0
STARLINK-5328,2023-021AF,2026-06-20T10:53:40.517952,14.98377483,.0003014,69.9995,265.5073,264.5880,95.4935,0,U,55657,999,18467,.45737E-3,.5375E-4,0
STARLINK-5307,2023-021AG,2026-06-20T08:41:50.214336,14.98331699,.0003224,69.9997,285.4631,270.1322,89.9467,0,U,55658,999,18417,-.72635E-5,-.18E-5,0
STARLINK-5477,2023-021AH,2026-06-20T10:47:42.604224,14.98345000,.0002877,69.9992,265.4919,267.8953,92.1877,0,U,55659,999,18466,-.16045E-3,-.2008E-4,0
STARLINK-5467,2023-021AJ,2026-06-20T09:35:34.770336,14.98332011,.0003126,69.9987,265.3238,269.8983,90.1818,0,U,55660,999,18467,-.20562E-4,-.338E-5,0
STARLINK-5475,2023-021AK,2026-06-20T10:23:39.662016,14.98331978,.0003279,69.9995,265.4361,269.4941,90.5843,0,U,55661,999,18467,.93367E-5,.18E-6,0
STARLINK-5479,2023-021AL,2026-06-20T10:51:08.631936,14.97534274,.000324,69.9992,265.5120,266.4781,93.6007,0,U,55662,999,18467,-.18106E-3,-.2208E-4,0
STARLINK-5473,2023-021AM,2026-06-20T08:35:30.247008,14.98332712,.0003255,69.9993,265.5735,269.8237,90.2549,0,U,55663,999,18465,.6047E-5,-.21E-6,0
STARLINK-5480,2023-021AN,2026-06-20T10:35:42.711648,14.98250431,.0003195,69.9991,265.4641,269.9101,90.1692,0,U,55664,999,18467,.15258E-2,.18122E-3,0
STARLINK-5474,2023-021AP,2026-06-20T08:29:29.679072,14.98331405,.0003227,69.9993,265.5598,271.1198,88.9591,0,U,55665,999,18465,.15891E-4,.97E-6,0
STARLINK-5456,2023-021AR,2026-06-20T09:47:37.241088,14.98321744,.0003406,69.9982,265.3460,267.9882,92.0886,0,U,55667,999,18466,-.36995E-4,-.534E-5,0
STARLINK-5455,2023-021AS,2026-06-20T10:29:40.346592,14.98329838,.0003208,69.9998,265.4503,269.1416,90.9375,0,U,55668,999,18466,-.10998E-4,-.224E-5,0
STARLINK-5459,2023-021AT,2026-06-20T10:17:38.999040,14.98331469,.0003315,69.9996,265.4207,269.4787,90.5992,0,U,55669,999,18466,-.33147E-5,-.133E-5,0
STARLINK-5423,2023-021AU,2026-06-20T09:59:37.187232,14.98329370,.00033,69.9989,265.3747,270.4163,89.6618,0,U,55670,999,18467,.17747E-4,.119E-5,0
STARLINK-5460,2023-021AV,2026-06-20T09:29:50.448192,14.98329741,.0003354,69.9990,265.6931,268.1822,91.8953,0,U,55671,999,18466,.126E-4,.57E-6,0
STARLINK-5463,2023-021AX,2026-06-20T09:53:36.436992,14.98315951,.0003372,69.9988,265.3592,273.8651,86.2123,0,U,55673,999,18467,.7881E-4,.847E-5,0
STARLINK-5462,2023-021AY,2026-06-20T09:41:35.117952,14.98336730,.000373,70.0003,265.3302,268.5137,91.5594,0,U,55674,999,18467,.27815E-3,.3228E-4,0
STARLINK-5232,2023-021AZ,2026-06-20T09:29:33.937152,14.98329789,.0003295,69.9990,265.3028,268.7041,91.3741,0,U,55675,999,18467,.22783E-4,.179E-5,0
STARLINK-5300,2023-021BA,2026-06-20T11:29:39.476832,14.98335423,.0003518,69.9995,245.3207,268.9450,91.1306,0,U,55676,999,18517,.14843E-3,.1679E-4,0
STARLINK-5324,2023-021BB,2026-06-20T11:11:23.842752,14.98339322,.0003434,69.9987,245.2737,267.8731,92.2035,0,U,55677,999,18517,.67768E-4,.716E-5,0
