[
  {
    "name": "STARLINK-5483",
    "noradId": "55643",
    "line1": "1 55643U 23021R   26171.41248123 -.00000319  00000+0 -18909-4 0  9998",
    "line2": "2 55643  69.9994 285.6344 0003403 270.5666  89.5103 14.98329574184174"
  },
  {
    "name": "STARLINK-5502",
    "noradId": "55644",
    "line1": "1 55644U 23021S   26171.45836977 -.00000308  00000+0 -17976-4 0  9994",
    "line2": "2 55644  69.9988 285.3972 0002973 262.2436  97.8385 14.98337204184180"
  },
  {
    "name": "STARLINK-5510",
    "noradId": "55647",
    "line1": "1 55647U 23021V   26171.35821203  .00000731  00000+0  69048-4 0  9997",
    "line2": "2 55647  69.9994 285.4482 0003201 269.8070  90.2722 14.98326785184172"
  },
  {
    "name": "STARLINK-5501",
    "noradId": "55648",
    "line1": "1 55648U 23021W   26171.45419390 -.00000386  00000+0 -24587-4 0  9996",
    "line2": "2 55648  69.9987 285.3822 0003382 269.5584  90.5188 14.98330768184185"
  },
  {
    "name": "STARLINK-5469",
    "noradId": "55649",
    "line1": "1 55649U 23021X   26171.43332110 -.00000081  00000+0  10068-5 0  9990",
    "line2": "2 55649  69.9996 285.3080 0003229 273.8553  86.2237 14.98329985184182"
  },
  {
    "name": "STARLINK-5494",
    "noradId": "55650",
    "line1": "1 55650U 23021Y   26171.44584632 -.00000104  00000+0 -95505-6 0  9998",
    "line2": "2 55650  69.9994 285.3523 0002949 267.5151  92.5670 14.98330226184187"
  },
  {
    "name": "STARLINK-5506",
    "noradId": "55651",
    "line1": "1 55651U 23021Z   26171.39578127  .00000369  00000+0  38695-4 0  9991",
    "line2": "2 55651  69.9993 285.5806 0003280 266.7644  93.3140 14.98331126184170"
  },
  {
    "name": "STARLINK-5487",
    "noradId": "55652",
    "line1": "1 55652U 23021AA  26171.43749602 -.00001817  00000+0 -14449-3 0  9996",
    "line2": "2 55652  69.9989 285.3233 0003265 266.5657  93.5129 14.98340113184189"
  },
  {
    "name": "STARLINK-5067",
    "noradId": "55653",
    "line1": "1 55653U 23021AB  26171.35403983  .00000291  00000+0  32178-4 0  9990",
    "line2": "2 55653  69.9996 285.4341 0003096 269.2704  90.8100 14.98331350184175"
  },
  {
    "name": "STARLINK-5070",
    "noradId": "55654",
    "line1": "1 55654U 23021AC  26171.40830454  .00000381  00000+0  39758-4 0  9995",
    "line2": "2 55654  69.9997 285.6262 0003161 270.5043  89.5754 14.98328305184171"
  },
  {
    "name": "STARLINK-5267",
    "noradId": "55655",
    "line1": "1 55655U 23021AD  26171.44562090 -.00000408  00000+0 -26391-4 0  9999",
    "line2": "2 55655  69.9995 265.4792 0003262 272.5468  87.5317 14.98334883184664"
  },
  {
    "name": "STARLINK-5328",
    "noradId": "55657",
    "line1": "1 55657U 23021AF  26171.45394118  .00005375  00000+0  45737-3 0  9996",
    "line2": "2 55657  69.9995 265.5073 0003014 264.5880  95.4935 14.98377483184671"
  },
  {
    "name": "STARLINK-5307",
    "noradId": "55658",
    "line1": "1 55658U 23021AG  26171.36238674 -.00000180  00000+0 -72635-5 0  9991",
    "line2": "2 55658  69.9997 285.4631 0003224 270.1322  89.9467 14.98331699184174"
  },
  {
    "name": "STARLINK-5477",
    "noradId": "55659",
    "line1": "1 55659U 23021AH  26171.44979866 -.00002008  00000+0 -16045-3 0  9998",
    "line2": "2 55659  69.9992 265.4919 0002877 267.8953  92.1877 14.98345000184669"
  },
  {
    "name": "STARLINK-5467",
    "noradId": "55660",
    "line1": "1 55660U 23021AJ  26171.39970799 -.00000338  00000+0 -20562-4 0  9994",
    "line2": "2 55660  69.9987 265.3238 0003126 269.8983  90.1818 14.98332011184673"
  },
  {
    "name": "STARLINK-5475",
    "noradId": "55661",
    "line1": "1 55661U 23021AK  26171.43309794  .00000018  00000+0  93367-5 0  9998",
    "line2": "2 55661  69.9995 265.4361 0003279 269.4941  90.5843 14.98331978184673"
  },
  {
    "name": "STARLINK-5479",
    "noradId": "55662",
    "line1": "1 55662U 23021AL  26171.45218324 -.00002208  00000+0 -18106-3 0  9990",
    "line2": "2 55662  69.9992 265.5120 0003240 266.4781  93.6007 14.97534274184671"
  },
  {
    "name": "STARLINK-5473",
    "noradId": "55663",
    "line1": "1 55663U 23021AM  26171.35798897 -.00000021  00000+0  60470-5 0  9991",
    "line2": "2 55663  69.9993 265.5735 0003255 269.8237  90.2549 14.98332712184650"
  },
  {
    "name": "STARLINK-5480",
    "noradId": "55664",
    "line1": "1 55664U 23021AN  26171.44146657  .00018122  00000+0  15258-2 0  9994",
    "line2": "2 55664  69.9991 265.4641 0003195 269.9101  90.1692 14.98250431184675"
  },
  {
    "name": "STARLINK-5474",
    "noradId": "55665",
    "line1": "1 55665U 23021AP  26171.35381573  .00000097  00000+0  15891-4 0  9990",
    "line2": "2 55665  69.9993 265.5598 0003227 271.1198  88.9591 14.98331405184659"
  },
  {
    "name": "STARLINK-5456",
    "noradId": "55667",
    "line1": "1 55667U 23021AR  26171.40806992 -.00000534  00000+0 -36995-4 0  9991",
    "line2": "2 55667  69.9982 265.3460 0003406 267.9882  92.0886 14.98321744184666"
  },
  {
    "name": "STARLINK-5455",
    "noradId": "55668",
    "line1": "1 55668U 23021AS  26171.43727253 -.00000224  00000+0 -10998-4 0  9998",
    "line2": "2 55668  69.9998 265.4503 0003208 269.1416  90.9375 14.98329838184662"
  },
  {
    "name": "STARLINK-5459",
    "noradId": "55669",
    "line1": "1 55669U 23021AT  26171.42892360 -.00000133  00000+0 -33147-5 0  9991",
    "line2": "2 55669  69.9996 265.4207 0003315 269.4787  90.5992 14.98331469184669"
  },
  {
    "name": "STARLINK-5423",
    "noradId": "55670",
    "line1": "1 55670U 23021AU  26171.41640263  .00000119  00000+0  17747-4 0  9994",
    "line2": "2 55670  69.9989 265.3747 0003300 270.4163  89.6618 14.98329370184678"
  },
  {
    "name": "STARLINK-5460",
    "noradId": "55671",
    "line1": "1 55671U 23021AV  26171.39572278  .00000057  00000+0  12600-4 0  9996",
    "line2": "2 55671  69.9990 265.6931 0003354 268.1822  91.8953 14.98329741184662"
  },
  {
    "name": "STARLINK-5463",
    "noradId": "55673",
    "line1": "1 55673U 23021AX  26171.41222728  .00000847  00000+0  78810-4 0  9995",
    "line2": "2 55673  69.9988 265.3592 0003372 273.8651  86.2123 14.98315951184670"
  },
  {
    "name": "STARLINK-5462",
    "noradId": "55674",
    "line1": "1 55674U 23021AY  26171.40387868  .00003228  00000+0  27815-3 0  9996",
    "line2": "2 55674  70.0003 265.3302 0003730 268.5137  91.5594 14.98336730184678"
  },
  {
    "name": "STARLINK-5232",
    "noradId": "55675",
    "line1": "1 55675U 23021AZ  26171.39553168  .00000179  00000+0  22783-4 0  9995",
    "line2": "2 55675  69.9990 265.3028 0003295 268.7041  91.3741 14.98329789184676"
  },
  {
    "name": "STARLINK-5300",
    "noradId": "55676",
    "line1": "1 55676U 23021BA  26171.47892913  .00001679  00000+0  14843-3 0  9992",
    "line2": "2 55676  69.9995 245.3207 0003518 268.9450  91.1306 14.98335423185176"
  },
  {
    "name": "STARLINK-5324",
    "noradId": "55677",
    "line1": "1 55677U 23021BB  26171.46624818  .00000716  00000+0  67768-4 0  9995",
    "line2": "2 55677  69.9987 245.2737 0003434 267.8731  92.2035 14.98339322185175"
  }
]